SL-16 R/B               
1 24298U 96051B   25306.47405170 -.00000078  00000+0 -15737-4 0  9993
2 24298  70.7589  84.5085 0017431 312.8617  47.1038 14.12392324503683
ORBVIEW 2 (SEASTAR)     
1 24883U 97037A   25306.41557222  .00000372  00000+0  14579-3 0  9995
2 24883  98.8442 102.4812 0003235  81.5123 278.6428 14.35369543490219
SL-16 R/B               
1 25400U 98043G   25306.45355076  .00000106  00000+0  63455-4 0  9999
2 25400  98.8054 254.0604 0010407  29.1555 331.0204 14.26009930420853
SL-16 R/B               
1 25407U 98045B   25306.50328428  .00000307  00000+0  17929-3 0  9992
2 25407  71.0101  89.0391 0009028 230.5029 129.5296 14.16166301409095
ISS (ZARYA)             
1 25544U 98067A   25306.42331346  .00010070  00000+0  18610-3 0  9998
2 25544  51.6344 342.0717 0004969   8.9436 351.1640 15.49700017536601
CZ-4B R/B               
1 25732U 99025C   25306.04139301  .00000095  00000+0  66958-4 0  9992
2 25732  98.6834 348.2190 0036933 353.7818  64.6211 14.18228157370071
OKEAN-O                 
1 25860U 99039A   25306.43020771  .00000915  00000+0  12772-3 0  9997
2 25860  97.9663   2.4704 0001735  75.1822 284.9582 14.80056834415569
SL-16 R/B               
1 25861U 99039B   25306.39670463  .00000768  00000+0  10473-3 0  9994
2 25861  98.0186   0.5340 0013821 314.2602  45.7475 14.81497610418018
DELTA 2 R/B             
1 25876U 99041E   25306.13543551  .00000908  00000+0  18505-3 0  9992
2 25876  51.7633  90.5073 0504688 332.1011  25.3673 14.11257682345017
HELIOS 1B               
1 25977U 99064A   25306.43351583  .00001933  00000+0  22224-3 0  9996
2 25977  98.1761 199.9101 0002502  97.7857 262.3642 14.87028802666346
TERRA                   
1 25994U 99068A   25306.46067524  .00000634  00000+0  13870-3 0  9995
2 25994  97.9808 359.6100 0001643 190.8936 227.1109 14.60880453376508
SL-16 R/B               
1 26070U 00006B   25306.48576280  .00000319  00000+0  18616-3 0  9994
2 26070  71.0043   5.2979 0016180   7.2473 352.8881 14.15798778330551
