CCSDS_OMM_VERS = 2.0
CREATION_DATE  = 
ORIGINATOR     = 

OBJECT_NAME    = SL-16 R/B
OBJECT_ID      = 1996-051B
CENTER_NAME    = EARTH
REF_FRAME      = TEME
TIME_SYSTEM    = UTC
MEAN_ELEMENT_THEORY = SGP/SGP4

EPOCH          = 2025-11-02T11:22:38.066880
MEAN_MOTION    = 14.12392324
ECCENTRICITY   = .0017431
INCLINATION    = 70.7589
RA_OF_ASC_NODE = 84.5085
ARG_OF_PERICENTER = 312.8617
MEAN_ANOMALY   = 47.1038

EPHEMERIS_TYPE = 0
CLASSIFICATION_TYPE = U
NORAD_CAT_ID   = 24298
ELEMENT_SET_NO = 999
REV_AT_EPOCH   = 50368
BSTAR          = -.15737E-4
MEAN_MOTION_DOT = -.78E-6
MEAN_MOTION_DDOT = 0

CCSDS_OMM_VERS = 2.0
CREATION_DATE  = 
ORIGINATOR     = 

OBJECT_NAME    = ORBVIEW 2 (SEASTAR)
OBJECT_ID      = 1997-037A
CENTER_NAME    = EARTH
REF_FRAME      = TEME
TIME_SYSTEM    = UTC
MEAN_ELEMENT_THEORY = SGP/SGP4

EPOCH          = 2025-11-02T09:58:25.439808
MEAN_MOTION    = 14.35369543
ECCENTRICITY   = .0003235
INCLINATION    = 98.8442
RA_OF_ASC_NODE = 102.4812
ARG_OF_PERICENTER = 81.5123
MEAN_ANOMALY   = 278.6428

EPHEMERIS_TYPE = 0
CLASSIFICATION_TYPE = U
NORAD_CAT_ID   = 24883
ELEMENT_SET_NO = 999
REV_AT_EPOCH   = 49021
BSTAR          = .14579E-3
MEAN_MOTION_DOT = .372E-5
MEAN_MOTION_DDOT = 0

CCSDS_OMM_VERS = 2.0
CREATION_DATE  = 
ORIGINATOR     = 

OBJECT_NAME    = SL-16 R/B
OBJECT_ID      = 1998-043G
CENTER_NAME    = EARTH
REF_FRAME      = TEME
TIME_SYSTEM    = UTC
MEAN_ELEMENT_THEORY = SGP/SGP4

EPOCH          = 2025-11-02T10:53:06.785664
MEAN_MOTION    = 14.26009930
ECCENTRICITY   = .0010407
INCLINATION    = 98.8054
RA_OF_ASC_NODE = 254.0604
ARG_OF_PERICENTER = 29.1555
MEAN_ANOMALY   = 331.0204

EPHEMERIS_TYPE = 0
CLASSIFICATION_TYPE = U
NORAD_CAT_ID   = 25400
ELEMENT_SET_NO = 999
REV_AT_EPOCH   = 42085
BSTAR          = .63455E-4
MEAN_MOTION_DOT = .106E-5
MEAN_MOTION_DDOT = 0

CCSDS_OMM_VERS = 2.0
CREATION_DATE  = 
ORIGINATOR     = 

OBJECT_NAME    = SL-16 R/B
OBJECT_ID      = 1998-045B
CENTER_NAME    = EARTH
REF_FRAME      = TEME
TIME_SYSTEM    = UTC
MEAN_ELEMENT_THEORY = SGP/SGP4

EPOCH          = 2025-11-02T12:04:43.761792
MEAN_MOTION    = 14.16166301
ECCENTRICITY   = .0009028
INCLINATION    = 71.0101
RA_OF_ASC_NODE = 89.0391
ARG_OF_PERICENTER = 230.5029
MEAN_ANOMALY   = 129.5296

EPHEMERIS_TYPE = 0
CLASSIFICATION_TYPE = U
NORAD_CAT_ID   = 25407
ELEMENT_SET_NO = 999
REV_AT_EPOCH   = 40909
BSTAR          = .17929E-3
MEAN_MOTION_DOT = .307E-5
MEAN_MOTION_DDOT = 0

CCSDS_OMM_VERS = 2.0
CREATION_DATE  = 
ORIGINATOR     = 

OBJECT_NAME    = ISS (ZARYA)
OBJECT_ID      = 1998-067A
CENTER_NAME    = EARTH
REF_FRAME      = TEME
TIME_SYSTEM    = UTC
MEAN_ELEMENT_THEORY = SGP/SGP4

EPOCH          = 2025-11-02T10:09:34.282944
MEAN_MOTION    = 15.49700017
ECCENTRICITY   = .0004969
INCLINATION    = 51.6344
RA_OF_ASC_NODE = 342.0717
ARG_OF_PERICENTER = 8.9436
MEAN_ANOMALY   = 351.1640

EPHEMERIS_TYPE = 0
CLASSIFICATION_TYPE = U
NORAD_CAT_ID   = 25544
ELEMENT_SET_NO = 999
REV_AT_EPOCH   = 53660
BSTAR          = .1861E-3
MEAN_MOTION_DOT = .1007E-3
MEAN_MOTION_DDOT = 0

CCSDS_OMM_VERS = 2.0
CREATION_DATE  = 
ORIGINATOR     = 

OBJECT_NAME    = CZ-4B R/B
OBJECT_ID      = 1999-025C
CENTER_NAME    = EARTH
REF_FRAME      = TEME
TIME_SYSTEM    = UTC
MEAN_ELEMENT_THEORY = SGP/SGP4

EPOCH          = 2025-11-02T00:59:36.356064
MEAN_MOTION    = 14.18228157
ECCENTRICITY   = .00369335
INCLINATION    = 98.6834
RA_OF_ASC_NODE = 348.2190
ARG_OF_PERICENTER = 353.7818
MEAN_ANOMALY   = 64.6211

EPHEMERIS_TYPE = 0
CLASSIFICATION_TYPE = U
NORAD_CAT_ID   = 25732
ELEMENT_SET_NO = 999
REV_AT_EPOCH   = 37007
BSTAR          = .66958229E-4
MEAN_MOTION_DOT = .95E-6
MEAN_MOTION_DDOT = 0

CCSDS_OMM_VERS = 2.0
CREATION_DATE  = 
ORIGINATOR     = 

OBJECT_NAME    = OKEAN-O
OBJECT_ID      = 1999-039A
CENTER_NAME    = EARTH
REF_FRAME      = TEME
TIME_SYSTEM    = UTC
MEAN_ELEMENT_THEORY = SGP/SGP4

EPOCH          = 2025-11-02T10:19:29.946144
MEAN_MOTION    = 14.80056834
ECCENTRICITY   = .0001735
INCLINATION    = 97.9663
RA_OF_ASC_NODE = 2.4704
ARG_OF_PERICENTER = 75.1822
MEAN_ANOMALY   = 284.9582

EPHEMERIS_TYPE = 0
CLASSIFICATION_TYPE = U
NORAD_CAT_ID   = 25860
ELEMENT_SET_NO = 999
REV_AT_EPOCH   = 41556
BSTAR          = .12772E-3
MEAN_MOTION_DOT = .915E-5
MEAN_MOTION_DDOT = 0

CCSDS_OMM_VERS = 2.0
CREATION_DATE  = 
ORIGINATOR     = 

OBJECT_NAME    = SL-16 R/B
OBJECT_ID      = 1999-039B
CENTER_NAME    = EARTH
REF_FRAME      = TEME
TIME_SYSTEM    = UTC
MEAN_ELEMENT_THEORY = SGP/SGP4

EPOCH          = 2025-11-02T09:31:15.280032
MEAN_MOTION    = 14.81497610
ECCENTRICITY   = .0013821
INCLINATION    = 98.0186
RA_OF_ASC_NODE = 0.5340
ARG_OF_PERICENTER = 314.2602
MEAN_ANOMALY   = 45.7475

EPHEMERIS_TYPE = 0
CLASSIFICATION_TYPE = U
NORAD_CAT_ID   = 25861
ELEMENT_SET_NO = 999
REV_AT_EPOCH   = 41801
BSTAR          = .10473E-3
MEAN_MOTION_DOT = .768E-5
MEAN_MOTION_DDOT = 0

CCSDS_OMM_VERS = 2.0
CREATION_DATE  = 
ORIGINATOR     = 

OBJECT_NAME    = DELTA 2 R/B
OBJECT_ID      = 1999-041E
CENTER_NAME    = EARTH
REF_FRAME      = TEME
TIME_SYSTEM    = UTC
MEAN_ELEMENT_THEORY = SGP/SGP4

EPOCH          = 2025-11-02T03:15:01.628064
MEAN_MOTION    = 14.11257682
ECCENTRICITY   = .05046882
INCLINATION    = 51.7633
RA_OF_ASC_NODE = 90.5073
ARG_OF_PERICENTER = 332.1011
MEAN_ANOMALY   = 25.3673

EPHEMERIS_TYPE = 0
CLASSIFICATION_TYPE = U
NORAD_CAT_ID   = 25876
ELEMENT_SET_NO = 999
REV_AT_EPOCH   = 34501
BSTAR          = .18505107E-3
MEAN_MOTION_DOT = .908E-5
MEAN_MOTION_DDOT = 0

CCSDS_OMM_VERS = 2.0
CREATION_DATE  = 
ORIGINATOR     = 

OBJECT_NAME    = HELIOS 1B
OBJECT_ID      = 1999-064A
CENTER_NAME    = EARTH
REF_FRAME      = TEME
TIME_SYSTEM    = UTC
MEAN_ELEMENT_THEORY = SGP/SGP4

EPOCH          = 2025-11-02T10:24:15.767712
MEAN_MOTION    = 14.87028802
ECCENTRICITY   = .0002502
INCLINATION    = 98.1761
RA_OF_ASC_NODE = 199.9101
ARG_OF_PERICENTER = 97.7857
MEAN_ANOMALY   = 262.3642

EPHEMERIS_TYPE = 0
CLASSIFICATION_TYPE = U
NORAD_CAT_ID   = 25977
ELEMENT_SET_NO = 999
REV_AT_EPOCH   = 66634
BSTAR          = .22224E-3
MEAN_MOTION_DOT = .1933E-4
MEAN_MOTION_DDOT = 0

CCSDS_OMM_VERS = 2.0
CREATION_DATE  = 
ORIGINATOR     = 

OBJECT_NAME    = TERRA
OBJECT_ID      = 1999-068A
CENTER_NAME    = EARTH
REF_FRAME      = TEME
TIME_SYSTEM    = UTC
MEAN_ELEMENT_THEORY = SGP/SGP4

EPOCH          = 2025-11-02T11:03:22.340736
MEAN_MOTION    = 14.60880453
ECCENTRICITY   = .0001643
INCLINATION    = 97.9808
RA_OF_ASC_NODE = 359.6100
ARG_OF_PERICENTER = 190.8936
MEAN_ANOMALY   = 227.1109

EPHEMERIS_TYPE = 0
CLASSIFICATION_TYPE = U
NORAD_CAT_ID   = 25994
ELEMENT_SET_NO = 999
REV_AT_EPOCH   = 37650
BSTAR          = .1387E-3
MEAN_MOTION_DOT = .634E-5
MEAN_MOTION_DDOT = 0

CCSDS_OMM_VERS = 2.0
CREATION_DATE  = 
ORIGINATOR     = 

OBJECT_NAME    = SL-16 R/B
OBJECT_ID      = 2000-006B
CENTER_NAME    = EARTH
REF_FRAME      = TEME
TIME_SYSTEM    = UTC
MEAN_ELEMENT_THEORY = SGP/SGP4

EPOCH          = 2025-11-02T11:39:29.905920
MEAN_MOTION    = 14.15798778
ECCENTRICITY   = .001618
INCLINATION    = 71.0043
RA_OF_ASC_NODE = 5.2979
ARG_OF_PERICENTER = 7.2473
MEAN_ANOMALY   = 352.8881

EPHEMERIS_TYPE = 0
CLASSIFICATION_TYPE = U
NORAD_CAT_ID   = 26070
ELEMENT_SET_NO = 999
REV_AT_EPOCH   = 33055
BSTAR          = .18616E-3
MEAN_MOTION_DOT = .319E-5
MEAN_MOTION_DDOT = 0

